SAUDISAT 1C             
1 27607U 02058C   16108.82900673  .00000216  00000-0  51432-4 0  9996
2 27607  64.5562 345.2553 0073688 229.5513 129.9149 14.75124858716237
SAUDISAT 2              
1 28371U 04025F   16109.55549534  .00000172  00000-0  50796-4 0  9990
2 28371  98.0751  71.3966 0024790 212.6716 147.2940 14.54173529626127
UNISAT 3                
1 28373U 04025H   16109.08122972  .00000214  00000-0  71530-4 0  9999
2 28373  98.2908  53.8765 0070359  61.2138 299.6097 14.45278805622499
SAUDISAT 3              
1 31118U 07012B   16109.45405831  .00000055  00000-0  17147-4 0  9995
2 31118  97.7205 120.1097 0014861 184.2270 175.8808 14.68990033482655
